STARLINK-36917          
1 68059U 26041V   26068.75002314 -.01646472  77474-3 -43702-2 0  9997
2 68059  53.1592  61.8714 0000701  85.6035  44.5345 15.94060118  2380
STARLINK-36959          
1 68060U 26041W   26068.75002314 -.01633639  76463-3 -43070-2 0  9995
2 68060  53.1593  61.8661 0000584  84.8226  47.5149 15.94184694  2387
STARLINK-36915          
1 68061U 26041X   26068.75002314 -.01632839  76491-3 -42761-2 0  9994
2 68061  53.1593  61.8612 0000589  91.5564  43.2138 15.94310737  2389
STARLINK-36952          
1 68062U 26041Y   26068.75002314 -.01636672  76922-3 -42568-2 0  9998
2 68062  53.1594  61.8563 0000652  94.7345  42.6210 15.94440295  2386
STARLINK-37000          
1 68063U 26041Z   26068.75002314 -.01640683  77368-3 -42385-2 0  9998
2 68063  53.1594  61.8503 0000744  85.9043  54.0754 15.94566875  2383
STARLINK-36996          
1 68064U 26041AA  26068.75002314 -.01632175  76725-3 -41894-2 0  9996
2 68064  53.1594  61.8451 0000641  83.7831  58.8582 15.94686606  2389
STARLINK-36836          
1 68065U 26041AB  26068.75002314 -.01632614  76962-3 -41338-2 0  9991
2 68065  53.1593  61.8347 0000634  84.7438  62.7522 15.94940813  2380
STARLINK-36976          
1 68066U 26041AC  26068.75002314 -.01630753  76898-3 -41014-2 0  9993
2 68066  53.1592  61.8293 0000636  86.5257  63.5329 15.95065964  2381
STARLINK-36929          
1 68067U 26041AD  26068.75002314 -.01635243  77091-3 -41685-2 0  9993
2 68067  53.1591  61.8393 0000590  95.1098  50.1357 15.94815626  2380
STARLINK-36990          
1 68068U 26041AE  26068.75002314 -.01642049  77985-3 -41012-2 0  9992
2 68068  53.1591  61.8235 0000660  91.3554  61.4974 15.95196447  2383
GLOBAL-34               
1 68098U 26043A   26068.47466435  .00014018  00000+0  45822-3 0  9994
2 68098  42.0215  76.7399 0006884 289.2632  70.7460 15.31488019   538
ELECTRON R/B            
1 68099U 26043B   26068.35411052  .02880529  76312-5  13683-2 0  9991
2 68099  42.0141  75.7245 0170809 290.5430  67.7176 15.95333192   537
ELECTRON KICK STAGE R/B 
1 68100U 26043C   26068.48069855  .03047399  81342-5  19440-2 0  9995
2 68100  42.1196  75.0711 0150670  47.4339 313.9128 15.96396295   541
